{
  "type": "FeatureCollection",
  "features": [
    {
      "type": "Feature",
      "properties": {
        "norad_id": 29268,
        "name": "ARIRANG-2 (KOMPSAT-2)",
        "group": "resource",
        "lat": -59.06814595299663,
        "lon": -157.65866785553015,
        "alt_km": 678.7899113978756,
        "timestamp": "2025-12-27T07:26:24.877505+00:00",
        "meta_object_name": "ARIRANG-2 (KOMPSAT-2)",
        "meta_object_id": "2006-031A",
        "meta_epoch": "2025-12-27T00:15:25.211808",
        "meta_mean_motion": 14.64507738,
        "meta_eccentricity": 0.00131183,
        "meta_inclination": 97.826,
        "meta_ra_of_asc_node": 188.7881,
        "meta_arg_of_pericenter": 260.0523,
        "meta_mean_anomaly": 262.8969,
        "meta_ephemeris_type": 0,
        "meta_classification_type": "U",
        "meta_norad_cat_id": 29268,
        "meta_element_set_no": 999,
        "meta_rev_at_epoch": 3627,
        "meta_bstar": 0.00016298425,
        "meta_mean_motion_dot": 8.2e-06,
        "meta_mean_motion_ddot": 0,
        "tle_line1": "1 29268U 06031A   25361.01070847  .00000820  00000+0  16298-3 0  9999",
        "tle_line2": "2 29268  97.8260 188.7881 0013118 260.0523 262.8969 14.64507738 36279"
      },
      "geometry": {
        "type": "Point",
        "coordinates": [
          -157.65866785553015,
          -59.06814595299663
        ]
      }
    },
    {
      "type": "Feature",
      "properties": {
        "norad_id": 29709,
        "name": "LAPAN-TUBSAT",
        "group": "resource",
        "lat": -80.06738921577426,
        "lon": 117.07941564191135,
        "alt_km": 624.1458588131682,
        "timestamp": "2025-12-27T07:26:24.877515+00:00",
        "meta_object_name": "LAPAN-TUBSAT",
        "meta_object_id": "2007-001A",
        "meta_epoch": "2025-12-26T23:47:18.536064",
        "meta_mean_motion": 14.85690621,
        "meta_eccentricity": 0.00130244,
        "meta_inclination": 98.1268,
        "meta_ra_of_asc_node": 351.4412,
        "meta_arg_of_pericenter": 31.6204,
        "meta_mean_anomaly": 328.579,
        "meta_ephemeris_type": 0,
        "meta_classification_type": "U",
        "meta_norad_cat_id": 29709,
        "meta_element_set_no": 999,
        "meta_rev_at_epoch": 2558,
        "meta_bstar": 7.9117294e-05,
        "meta_mean_motion_dot": 6.29e-06,
        "meta_mean_motion_ddot": 0,
        "tle_line1": "1 29709U 07001A   25360.99118676  .00000629  00000+0  79117-4 0  9993",
        "tle_line2": "2 29709  98.1268 351.4412 0013024  31.6204 328.5790 14.85690621 25585"
      },
      "geometry": {
        "type": "Point",
        "coordinates": [
          117.07941564191135,
          -80.06738921577426
        ]
      }
    },
    {
      "type": "Feature",
      "properties": {
        "norad_id": 31113,
        "name": "HAIYANG-1B",
        "group": "resource",
        "lat": 15.77699944836136,
        "lon": 167.3605909580076,
        "alt_km": 798.6256355576061,
        "timestamp": "2025-12-27T07:26:24.877526+00:00",
        "meta_object_name": "HAIYANG-1B",
        "meta_object_id": "2007-010A",
        "meta_epoch": "2025-12-26T22:17:09.432096",
        "meta_mean_motion": 14.30969835,
        "meta_eccentricity": 0.00134919,
        "meta_inclination": 98.3331,
        "meta_ra_of_asc_node": 344.6215,
        "meta_arg_of_pericenter": 357.1772,
        "meta_mean_anomaly": 2.9334,
        "meta_ephemeris_type": 0,
        "meta_classification_type": "U",
        "meta_norad_cat_id": 31113,
        "meta_element_set_no": 999,
        "meta_rev_at_epoch": 97599,
        "meta_bstar": 7.6749437e-05,
        "meta_mean_motion_dot": 1.6e-06,
        "meta_mean_motion_ddot": 0,
        "tle_line1": "1 31113U 07010A   25360.92858139  .00000160  00000+0  76749-4 0  9991",
        "tle_line2": "2 31113  98.3331 344.6215 0013491 357.1772   2.9334 14.30969835975991"
      },
      "geometry": {
        "type": "Point",
        "coordinates": [
          167.3605909580076,
          15.77699944836136
        ]
      }
    },
    {
      "type": "Feature",
      "properties": {
        "norad_id": 31598,
        "name": "COSMO-SKYMED 1",
        "group": "resource",
        "lat": 30.72949837408983,
        "lon": -177.91945054365715,
        "alt_km": 577.5113606991463,
        "timestamp": "2025-12-27T07:26:24.877536+00:00",
        "meta_object_name": "COSMO-SKYMED 1",
        "meta_object_id": "2007-023A",
        "meta_epoch": "2025-12-26T23:16:29.406720",
        "meta_mean_motion": 14.95870779,
        "meta_eccentricity": 0.00011153,
        "meta_inclination": 97.8838,
        "meta_ra_of_asc_node": 186.4631,
        "meta_arg_of_pericenter": 77.4605,
        "meta_mean_anomaly": 282.674,
        "meta_ephemeris_type": 0,
        "meta_classification_type": "U",
        "meta_norad_cat_id": 31598,
        "meta_element_set_no": 999,
        "meta_rev_at_epoch": 403,
        "meta_bstar": 0.00036427741,
        "meta_mean_motion_dot": 4.014e-05,
        "meta_mean_motion_ddot": 0,
        "tle_line1": "1 31598U 07023A   25360.96978480  .00004014  00000+0  36428-3 0  9999",
        "tle_line2": "2 31598  97.8838 186.4631 0001115  77.4605 282.6740 14.95870779  4030"
      },
      "geometry": {
        "type": "Point",
        "coordinates": [
          -177.91945054365715,
          30.72949837408983
        ]
      }
    },
    {
      "type": "Feature",
      "properties": {
        "norad_id": 31698,
        "name": "TERRASAR-X",
        "group": "resource",
        "lat": -8.646384725921825,
        "lon": -174.66179123134134,
        "alt_km": 512.9568940497893,
        "timestamp": "2025-12-27T07:26:24.877547+00:00",
        "meta_object_name": "TERRASAR-X",
        "meta_object_id": "2007-026A",
        "meta_epoch": "2025-12-26T13:13:25.268160",
        "meta_mean_motion": 15.19159007,
        "meta_eccentricity": 0.0001831,
        "meta_inclination": 97.4449,
        "meta_ra_of_asc_node": 5.7296,
        "meta_arg_of_pericenter": 80.7089,
        "meta_mean_anomaly": 279.4352,
        "meta_ephemeris_type": 0,
        "meta_classification_type": "U",
        "meta_norad_cat_id": 31698,
        "meta_element_set_no": 999,
        "meta_rev_at_epoch": 2701,
        "meta_bstar": 7.4512e-05,
        "meta_mean_motion_dot": 1.498e-05,
        "meta_mean_motion_ddot": 0,
        "tle_line1": "1 31698U 07026A   25360.55098690  .00001498  00000+0  74512-4 0  9994",
        "tle_line2": "2 31698  97.4449   5.7296 0001831  80.7089 279.4352 15.19159007 27010"
      },
      "geometry": {
        "type": "Point",
        "coordinates": [
          -174.66179123134134,
          -8.646384725921825
        ]
      }
    },
    {
      "type": "Feature",
      "properties": {
        "norad_id": 32060,
        "name": "WORLDVIEW-1 (WV-1)",
        "group": "resource",
        "lat": 77.05323240830744,
        "lon": -27.095870060972,
        "alt_km": 487.4130937863565,
        "timestamp": "2025-12-27T07:26:24.877557+00:00",
        "meta_object_name": "WORLDVIEW-1 (WV-1)",
        "meta_object_id": "2007-041A",
        "meta_epoch": "2025-12-26T21:32:43.566144",
        "meta_mean_motion": 15.23990388,
        "meta_eccentricity": 0.00030256,
        "meta_inclination": 97.3817,
        "meta_ra_of_asc_node": 118.1698,
        "meta_arg_of_pericenter": 347.9244,
        "meta_mean_anomaly": 12.192,
        "meta_ephemeris_type": 0,
        "meta_classification_type": "U",
        "meta_norad_cat_id": 32060,
        "meta_element_set_no": 999,
        "meta_rev_at_epoch": 1663,
        "meta_bstar": 0.00039989671,
        "meta_mean_motion_dot": 9.618e-05,
        "meta_mean_motion_ddot": 0,
        "tle_line1": "1 32060U 07041A   25360.89772646  .00009618  00000+0  39990-3 0  9994",
        "tle_line2": "2 32060  97.3817 118.1698 0003025 347.9244  12.1920 15.23990388 16634"
      },
      "geometry": {
        "type": "Point",
        "coordinates": [
          -27.095870060972,
          77.05323240830744
        ]
      }
    },
    {
      "type": "Feature",
      "properties": {
        "norad_id": 32289,
        "name": "YAOGAN-3",
        "group": "resource",
        "lat": -68.58320073987575,
        "lon": 48.35687190700958,
        "alt_km": 606.1642761088005,
        "timestamp": "2025-12-27T07:26:24.877567+00:00",
        "meta_object_name": "YAOGAN-3",
        "meta_object_id": "2007-055A",
        "meta_epoch": "2025-12-26T23:41:42.010656",
        "meta_mean_motion": 14.8992561,
        "meta_eccentricity": 0.0001183,
        "meta_inclination": 97.8358,
        "meta_ra_of_asc_node": 27.4825,
        "meta_arg_of_pericenter": 82.4994,
        "meta_mean_anomaly": 277.6358,
        "meta_ephemeris_type": 0,
        "meta_classification_type": "U",
        "meta_norad_cat_id": 32289,
        "meta_element_set_no": 999,
        "meta_rev_at_epoch": 98021,
        "meta_bstar": 0.00010197392,
        "meta_mean_motion_dot": 9.26e-06,
        "meta_mean_motion_ddot": 0,
        "tle_line1": "1 32289U 07055A   25360.98729179  .00000926  00000+0  10197-3 0  9996",
        "tle_line2": "2 32289  97.8358  27.4825 0001183  82.4994 277.6358 14.89925610980216"
      },
      "geometry": {
        "type": "Point",
        "coordinates": [
          48.35687190700958,
          -68.58320073987575
        ]
      }
    }
  ]
}